KUIPER-00008            
1 63724U 25088A   26024.91365581  .00011624  00000+0  96391-3 0  9991
2 63724  51.8900 286.5220 0007517 314.4686  45.5670 14.99180153 41490
KUIPER-00009            
1 63725U 25088B   26025.02374752  .00009231  00000+0  12359-2 0  9997
2 63725  51.9028 299.7222 0009809 318.7991  41.2230 14.79991194 41312
KUIPER-00010            
1 63726U 25088C   26024.67813008  .00005797  00000+0  78965-3 0  9999
2 63726  51.9001 277.7075 0000490  78.9938 281.1079 14.79887310 41218
KUIPER-00011            
1 63727U 25088D   26024.70372694  .00008591  00000+0  11532-2 0  9996
2 63727  51.8986 285.1604 0010270 338.1186  21.9337 14.79958274 41242
KUIPER-00012            
1 63728U 25088E   26024.69871200  .00005557  00000+0  81446-3 0  9993
2 63728  51.9014 269.5382 0008229 346.8757  13.1989 14.76805803 41417
KUIPER-00013            
1 63729U 25088F   26025.02244682  .00009008  00000+0  12115-2 0  9991
2 63729  51.9018 301.1874 0003140 250.2330 109.8294 14.79845395 41104
KUIPER-00014            
1 63730U 25088G   26024.47930518  .00006498  00000+0  87655-3 0  9993
2 63730  51.9018 304.5473 0004726 330.8634  29.2064 14.80122629 40829
KUIPER-00015            
1 63731U 25088H   26025.06324602  .00011192  00000+0  14087-2 0  9996
2 63731  51.9004 312.2822 0008985 292.4172  67.5839 14.82402794 41226
