<?xml version="1.0" encoding="UTF-8"?>
<ndm xmlns:xsi="http://www.w3.org/2001/XMLSchema-instance" xsi:noNamespaceSchemaLocation="https://sanaregistry.org/r/ndmxml_unqualified/ndmxml-2.0.0-master-2.0.xsd">
<omm id="CCSDS_OMM_VERS" version="2.0">
<header><CREATION_DATE/><ORIGINATOR/></header><body><segment><metadata><OBJECT_NAME>KUIPER-00008</OBJECT_NAME><OBJECT_ID>2025-088A</OBJECT_ID><CENTER_NAME>EARTH</CENTER_NAME><REF_FRAME>TEME</REF_FRAME><TIME_SYSTEM>UTC</TIME_SYSTEM><MEAN_ELEMENT_THEORY>SGP4</MEAN_ELEMENT_THEORY></metadata><data><meanElements><EPOCH>2026-01-24T21:55:39.861984</EPOCH><MEAN_MOTION>14.99180153</MEAN_MOTION><ECCENTRICITY>.0007517</ECCENTRICITY><INCLINATION>51.8900</INCLINATION><RA_OF_ASC_NODE>286.5220</RA_OF_ASC_NODE><ARG_OF_PERICENTER>314.4686</ARG_OF_PERICENTER><MEAN_ANOMALY>45.5670</MEAN_ANOMALY></meanElements><tleParameters><EPHEMERIS_TYPE>0</EPHEMERIS_TYPE><CLASSIFICATION_TYPE>U</CLASSIFICATION_TYPE><NORAD_CAT_ID>63724</NORAD_CAT_ID><ELEMENT_SET_NO>999</ELEMENT_SET_NO><REV_AT_EPOCH>4149</REV_AT_EPOCH><BSTAR>.96391E-3</BSTAR><MEAN_MOTION_DOT>.11624E-3</MEAN_MOTION_DOT><MEAN_MOTION_DDOT>0</MEAN_MOTION_DDOT></tleParameters></data></segment></body></omm>
<omm id="CCSDS_OMM_VERS" version="2.0">
<header><CREATION_DATE/><ORIGINATOR/></header><body><segment><metadata><OBJECT_NAME>KUIPER-00009</OBJECT_NAME><OBJECT_ID>2025-088B</OBJECT_ID><CENTER_NAME>EARTH</CENTER_NAME><REF_FRAME>TEME</REF_FRAME><TIME_SYSTEM>UTC</TIME_SYSTEM><MEAN_ELEMENT_THEORY>SGP4</MEAN_ELEMENT_THEORY></metadata><data><meanElements><EPOCH>2026-01-25T00:34:11.785728</EPOCH><MEAN_MOTION>14.79991194</MEAN_MOTION><ECCENTRICITY>.0009809</ECCENTRICITY><INCLINATION>51.9028</INCLINATION><RA_OF_ASC_NODE>299.7222</RA_OF_ASC_NODE><ARG_OF_PERICENTER>318.7991</ARG_OF_PERICENTER><MEAN_ANOMALY>41.2230</MEAN_ANOMALY></meanElements><tleParameters><EPHEMERIS_TYPE>0</EPHEMERIS_TYPE><CLASSIFICATION_TYPE>U</CLASSIFICATION_TYPE><NORAD_CAT_ID>63725</NORAD_CAT_ID><ELEMENT_SET_NO>999</ELEMENT_SET_NO><REV_AT_EPOCH>4131</REV_AT_EPOCH><BSTAR>.12359E-2</BSTAR><MEAN_MOTION_DOT>.9231E-4</MEAN_MOTION_DOT><MEAN_MOTION_DDOT>0</MEAN_MOTION_DDOT></tleParameters></data></segment></body></omm>
<omm id="CCSDS_OMM_VERS" version="2.0">
<header><CREATION_DATE/><ORIGINATOR/></header><body><segment><metadata><OBJECT_NAME>KUIPER-00010</OBJECT_NAME><OBJECT_ID>2025-088C</OBJECT_ID><CENTER_NAME>EARTH</CENTER_NAME><REF_FRAME>TEME</REF_FRAME><TIME_SYSTEM>UTC</TIME_SYSTEM><MEAN_ELEMENT_THEORY>SGP4</MEAN_ELEMENT_THEORY></metadata><data><meanElements><EPOCH>2026-01-24T16:16:30.438912</EPOCH><MEAN_MOTION>14.79887310</MEAN_MOTION><ECCENTRICITY>.00004908</ECCENTRICITY><INCLINATION>51.9001</INCLINATION><RA_OF_ASC_NODE>277.7075</RA_OF_ASC_NODE><ARG_OF_PERICENTER>78.9938</ARG_OF_PERICENTER><MEAN_ANOMALY>281.1079</MEAN_ANOMALY></meanElements><tleParameters><EPHEMERIS_TYPE>0</EPHEMERIS_TYPE><CLASSIFICATION_TYPE>U</CLASSIFICATION_TYPE><NORAD_CAT_ID>63726</NORAD_CAT_ID><ELEMENT_SET_NO>999</ELEMENT_SET_NO><REV_AT_EPOCH>4121</REV_AT_EPOCH><BSTAR>.78965047E-3</BSTAR><MEAN_MOTION_DOT>.5797E-4</MEAN_MOTION_DOT><MEAN_MOTION_DDOT>0</MEAN_MOTION_DDOT></tleParameters></data></segment></body></omm>
<omm id="CCSDS_OMM_VERS" version="2.0">
<header><CREATION_DATE/><ORIGINATOR/></header><body><segment><metadata><OBJECT_NAME>KUIPER-00011</OBJECT_NAME><OBJECT_ID>2025-088D</OBJECT_ID><CENTER_NAME>EARTH</CENTER_NAME><REF_FRAME>TEME</REF_FRAME><TIME_SYSTEM>UTC</TIME_SYSTEM><MEAN_ELEMENT_THEORY>SGP4</MEAN_ELEMENT_THEORY></metadata><data><meanElements><EPOCH>2026-01-24T16:53:22.007616</EPOCH><MEAN_MOTION>14.79958274</MEAN_MOTION><ECCENTRICITY>.00102709</ECCENTRICITY><INCLINATION>51.8986</INCLINATION><RA_OF_ASC_NODE>285.1604</RA_OF_ASC_NODE><ARG_OF_PERICENTER>338.1186</ARG_OF_PERICENTER><MEAN_ANOMALY>21.9337</MEAN_ANOMALY></meanElements><tleParameters><EPHEMERIS_TYPE>0</EPHEMERIS_TYPE><CLASSIFICATION_TYPE>U</CLASSIFICATION_TYPE><NORAD_CAT_ID>63727</NORAD_CAT_ID><ELEMENT_SET_NO>999</ELEMENT_SET_NO><REV_AT_EPOCH>4124</REV_AT_EPOCH><BSTAR>.11531588E-2</BSTAR><MEAN_MOTION_DOT>.8591E-4</MEAN_MOTION_DOT><MEAN_MOTION_DDOT>0</MEAN_MOTION_DDOT></tleParameters></data></segment></body></omm>
<omm id="CCSDS_OMM_VERS" version="2.0">
<header><CREATION_DATE/><ORIGINATOR/></header><body><segment><metadata><OBJECT_NAME>KUIPER-00012</OBJECT_NAME><OBJECT_ID>2025-088E</OBJECT_ID><CENTER_NAME>EARTH</CENTER_NAME><REF_FRAME>TEME</REF_FRAME><TIME_SYSTEM>UTC</TIME_SYSTEM><MEAN_ELEMENT_THEORY>SGP4</MEAN_ELEMENT_THEORY></metadata><data><meanElements><EPOCH>2026-01-24T16:46:08.716800</EPOCH><MEAN_MOTION>14.76805803</MEAN_MOTION><ECCENTRICITY>.00082293</ECCENTRICITY><INCLINATION>51.9014</INCLINATION><RA_OF_ASC_NODE>269.5382</RA_OF_ASC_NODE><ARG_OF_PERICENTER>346.8757</ARG_OF_PERICENTER><MEAN_ANOMALY>13.1989</MEAN_ANOMALY></meanElements><tleParameters><EPHEMERIS_TYPE>0</EPHEMERIS_TYPE><CLASSIFICATION_TYPE>U</CLASSIFICATION_TYPE><NORAD_CAT_ID>63728</NORAD_CAT_ID><ELEMENT_SET_NO>999</ELEMENT_SET_NO><REV_AT_EPOCH>4141</REV_AT_EPOCH><BSTAR>.81445914E-3</BSTAR><MEAN_MOTION_DOT>.5557E-4</MEAN_MOTION_DOT><MEAN_MOTION_DDOT>0</MEAN_MOTION_DDOT></tleParameters></data></segment></body></omm>
<omm id="CCSDS_OMM_VERS" version="2.0">
<header><CREATION_DATE/><ORIGINATOR/></header><body><segment><metadata><OBJECT_NAME>KUIPER-00013</OBJECT_NAME><OBJECT_ID>2025-088F</OBJECT_ID><CENTER_NAME>EARTH</CENTER_NAME><REF_FRAME>TEME</REF_FRAME><TIME_SYSTEM>UTC</TIME_SYSTEM><MEAN_ELEMENT_THEORY>SGP4</MEAN_ELEMENT_THEORY></metadata><data><meanElements><EPOCH>2026-01-25T00:32:19.405248</EPOCH><MEAN_MOTION>14.79845395</MEAN_MOTION><ECCENTRICITY>.000314</ECCENTRICITY><INCLINATION>51.9018</INCLINATION><RA_OF_ASC_NODE>301.1874</RA_OF_ASC_NODE><ARG_OF_PERICENTER>250.2330</ARG_OF_PERICENTER><MEAN_ANOMALY>109.8294</MEAN_ANOMALY></meanElements><tleParameters><EPHEMERIS_TYPE>0</EPHEMERIS_TYPE><CLASSIFICATION_TYPE>U</CLASSIFICATION_TYPE><NORAD_CAT_ID>63729</NORAD_CAT_ID><ELEMENT_SET_NO>999</ELEMENT_SET_NO><REV_AT_EPOCH>4110</REV_AT_EPOCH><BSTAR>.12115E-2</BSTAR><MEAN_MOTION_DOT>.9008E-4</MEAN_MOTION_DOT><MEAN_MOTION_DDOT>0</MEAN_MOTION_DDOT></tleParameters></data></segment></body></omm>
<omm id="CCSDS_OMM_VERS" version="2.0">
<header><CREATION_DATE/><ORIGINATOR/></header><body><segment><metadata><OBJECT_NAME>KUIPER-00014</OBJECT_NAME><OBJECT_ID>2025-088G</OBJECT_ID><CENTER_NAME>EARTH</CENTER_NAME><REF_FRAME>TEME</REF_FRAME><TIME_SYSTEM>UTC</TIME_SYSTEM><MEAN_ELEMENT_THEORY>SGP4</MEAN_ELEMENT_THEORY></metadata><data><meanElements><EPOCH>2026-01-24T11:30:11.967552</EPOCH><MEAN_MOTION>14.80122629</MEAN_MOTION><ECCENTRICITY>.00047264</ECCENTRICITY><INCLINATION>51.9018</INCLINATION><RA_OF_ASC_NODE>304.5473</RA_OF_ASC_NODE><ARG_OF_PERICENTER>330.8634</ARG_OF_PERICENTER><MEAN_ANOMALY>29.2064</MEAN_ANOMALY></meanElements><tleParameters><EPHEMERIS_TYPE>0</EPHEMERIS_TYPE><CLASSIFICATION_TYPE>U</CLASSIFICATION_TYPE><NORAD_CAT_ID>63730</NORAD_CAT_ID><ELEMENT_SET_NO>999</ELEMENT_SET_NO><REV_AT_EPOCH>4082</REV_AT_EPOCH><BSTAR>.87655367E-3</BSTAR><MEAN_MOTION_DOT>.6498E-4</MEAN_MOTION_DOT><MEAN_MOTION_DDOT>0</MEAN_MOTION_DDOT></tleParameters></data></segment></body></omm>
<omm id="CCSDS_OMM_VERS" version="2.0">
<header><CREATION_DATE/><ORIGINATOR/></header><body><segment><metadata><OBJECT_NAME>KUIPER-00015</OBJECT_NAME><OBJECT_ID>2025-088H</OBJECT_ID><CENTER_NAME>EARTH</CENTER_NAME><REF_FRAME>TEME</REF_FRAME><TIME_SYSTEM>UTC</TIME_SYSTEM><MEAN_ELEMENT_THEORY>SGP4</MEAN_ELEMENT_THEORY></metadata><data><meanElements><EPOCH>2026-01-25T01:31:04.456128</EPOCH><MEAN_MOTION>14.82402794</MEAN_MOTION><ECCENTRICITY>.0008985</ECCENTRICITY><INCLINATION>51.9004</INCLINATION><RA_OF_ASC_NODE>312.2822</RA_OF_ASC_NODE><ARG_OF_PERICENTER>292.4172</ARG_OF_PERICENTER><MEAN_ANOMALY>67.5839</MEAN_ANOMALY></meanElements><tleParameters><EPHEMERIS_TYPE>0</EPHEMERIS_TYPE><CLASSIFICATION_TYPE>U</CLASSIFICATION_TYPE><NORAD_CAT_ID>63731</NORAD_CAT_ID><ELEMENT_SET_NO>999</ELEMENT_SET_NO><REV_AT_EPOCH>4122</REV_AT_EPOCH><BSTAR>.14087E-2</BSTAR><MEAN_MOTION_DOT>.11192E-3</MEAN_MOTION_DOT><MEAN_MOTION_DDOT>0</MEAN_MOTION_DDOT></tleParameters></data></segment></body></omm>

</ndm>
